BEIDOU-2 IGSO-5         
1 37948U 11073A   26169.66754444 -.00000192  00000+0  00000+0 0  9998
2 37948  47.6748 271.5267 0113971 221.7702 105.6518  1.00272695 53143
LUCH-5A                 
1 37951U 11074B   26169.52461317 -.00000060  00000+0  00000+0 0  9996
2 37951   8.7582  73.7878 0002335  26.9496 161.8222  1.00270425 53063
BEIDOU-2 G5             
1 38091U 12008A   26169.97756797  .00000050  00000+0  00000+0 0  9996
2 38091   3.5789  69.6876 0009044 272.8470 335.2536  1.00272333 52380
BEIDOU-2 M3             
1 38250U 12018A   26169.26260523 -.00000077  00000+0  00000+0 0  9993
2 38250  55.7570 304.8392 0020121 273.7954  85.9641  1.86229668 95961
BEIDOU-2 M4             
1 38251U 12018B   26169.19490603 -.00000076  00000+0  00000+0 0  9999
2 38251  55.6572 304.0554 0011296 275.6093  84.2520  1.86229337 95964
SES-5                   
1 38652U 12036A   26169.53933329  .00000027  00000+0  00000+0 0  9994
2 38652   0.0452 317.9851 0001720 125.6785  22.2406  1.00269306 44477
BEIDOU-2 M6             
1 38775U 12050B   26168.90464876 -.00000054  00000+0  00000+0 0  9993
2 38775  56.5449  62.8706 0013670 357.5201   2.5153  1.86230869 93320
GSAT-10                 
1 38779U 12051B   26169.91129213 -.00000171  00000+0  00000+0 0  9993
2 38779   0.0757 261.8446 0007763 186.2957 230.0771  1.00272150 50112
NAVSTAR 67 (USA 239)    
1 38833U 12053A   26169.81188956  .00000047  00000+0  00000+0 0  9995
2 38833  53.5864 143.5327 0180385  65.7792 296.0607  2.00567462 99475
GSAT0103 (GALILEO-FM3)  
1 38857U 12055A   26168.47561804 -.00000011  00000+0  00000+0 0  9993
2 38857  55.8068 101.5377 0004771 306.3432  53.5821  1.70473345 85011
BEIDOU-2 G6             
1 38953U 12059A   26169.84022277 -.00000183  00000+0  00000+0 0  9992
2 38953   4.4263  73.5051 0009615 324.4090 255.6782  1.00271655 49929
LUCH-5B                 
1 38977U 12061A   26169.89176601 -.00000148  00000+0  00000+0 0  9998
2 38977  10.4892  49.8655 0002465 150.1855  11.8366  1.00272094 49620
COSMOS 2485 [GLONASS-M] 
1 39155U 13019A   26167.91000455 -.00000020  00000+0  00000+0 0  9994
2 39155  65.4195  73.6140 0023135 234.1379 125.6814  2.13103258102273
NAVSTAR 68 (USA 242)    
1 39166U 13023A   26169.67891132 -.00000041  00000+0  00000+0 0  9999
2 39166  54.5028 268.9129 0141519  51.0513 310.2401  2.00563410 95910
IRNSS-1A                
1 39199U 13034A   26169.89544831  .00000051  00000+0  00000+0 0  9992
2 39199  35.7241  63.8469 0017589 183.2529  37.3106  1.00275723 47380
NAVSTAR 69 (USA 248)    
1 39533U 14008A   26169.68055942  .00000050  00000+0  00000+0 0  9992
2 39533  53.6549 149.2587 0084219 231.2964 127.9208  2.00559851 89713
ASTRA 5B                
1 39617U 14011B   26169.89956603  .00000131  00000+0  00000+0 0  9996
2 39617   0.0663 310.0831 0001954 147.5970 156.8110  1.00272970 44683
COSMOS 2492 [GLONASS-M] 
1 39620U 14012A   26169.27664962 -.00000055  00000+0  00000+0 0  9993
2 39620  65.2971 313.8989 0010348 324.5914  35.3281  2.13103143 95269
IRNSS-1B                
1 39635U 14017A   26169.76323579  .00000112  00000+0  00000+0 0  9997
2 39635  28.9195 240.3764 0023149 189.5120 167.0529  1.00276864 44803
LUCH-5V                 
1 39727U 14023A   26169.80346045 -.00000277  00000+0  00000+0 0  9997
2 39727   5.1369  69.7269 0001864  50.0917 171.1841  1.00273727 44374
NAVSTAR 70 (USA 251)    
1 39741U 14026A   26168.95890413 -.00000086  00000+0  00000+0 0  9992
2 39741  56.4979 331.4873 0038170 326.5547  33.1958  2.00560834 88559
COSMOS 2500 [GLONASS-M] 
1 40001U 14032A   26169.44639397 -.00000055  00000+0  00000+0 0  9993
2 40001  65.2319 313.6405 0007400 184.7719 175.2102  2.13105740 93488
NAVSTAR 71 (USA 256)    
1 40105U 14045A   26169.05068652 -.00000019  00000+0  00000+0 0  9999
2 40105  55.3537  88.4306 0033348 118.2439 242.0957  2.00558400 86094
GSAT0201 (GALILEO 5)    
1 40128U 14050A   26168.41693638 -.00000052  00000+0  00000+0 0  9994
2 40128  48.8753 273.4270 1674557 179.4035 180.8790  1.85519962 78320
GSAT0202 (GALILEO 6)    
1 40129U 14050B   26169.21145487 -.00000058  00000+0  00000+0 0  9994
2 40129  48.8910 272.4799 1675952 180.1594 179.8332  1.85520552 80500
IRNSS-1C                
1 40269U 14061A   26169.90132101 -.00000169  00000+0  00000+0 0  9999
2 40269   6.5218  88.8990 0022696   2.6506 223.0203  1.00269060 42700
NAVSTAR 72 (USA 258)    
1 40294U 14068A   26168.92054840 -.00000079  00000+0  00000+0 0  9998
2 40294  56.9881  30.9264 0067071  70.6155 290.1646  2.00576133 85229
COSMOS 2501 [GLONASS-K] 
1 40315U 14075A   26169.23921888  .00000057  00000+0  00000+0 0  9995
2 40315  63.6163 190.3355 0022632 212.5216 147.3839  2.13101232 89872
NAVSTAR 73 (USA 260)    
1 40534U 15013A   26169.55825448  .00000035  00000+0  00000+0 0  9997
2 40534  53.1677 204.1208 0109553  40.1397 320.7269  2.00551281 81856
GSAT0203 (GALILEO 7)    
1 40544U 15017A   26168.79938999 -.00000091  00000+0  00000+0 0  9996
2 40544  56.7854 341.5787 0002098 276.4201  83.5494  1.70476090 69215
GSAT0204 (GALILEO 8)    
1 40545U 15017B   26168.46859940 -.00000091  00000+0  00000+0 0  9999
2 40545  56.7938 341.6062 0001909 248.2807 111.6927  1.70475617 32257
